COSMOS 2251 DEB         
1 34978U 93036AFH 17345.82107293  .00002195  00000-0  33373-3 0  9993
2 34978  74.0267 354.0488 0039015 158.5751 201.7067 14.74158624458182
